HST                     
1 20580U 90037B   26165.14417512  .00006344  00000+0  19999-3 0  9995
2 20580  28.4715 101.3706 0001912 110.8714 249.2086 15.30716351788104
POLAR                   
1 23802U 96013A   26164.95607492  .00000147  00000+0  00000+0 0  9995
2 23802  79.8497 227.0901 6467269 209.1905  89.6377  1.29846142144813
SWAS                    
1 25560U 98071A   26165.69657403  .00003077  00000+0  19734-3 0  9996
2 25560  69.8958 233.9423 0008687 262.8395  97.1782 15.09614495496899
CXO                     
1 25867U 99040B   26166.73124906  .00000579  00000+0  00000+0 0  9992
2 25867  56.1776 116.6293 7842889 310.3072   0.0447  0.37804362 17312
XMM-NEWTON              
1 25989U 99066A   26167.35230823  .00000036  00000+0  00000+0 0  9998
2 25989  64.4922 282.9960 4674559  64.9442   0.1261  0.50126459 23004
TERRA                   
1 25994U 99068A   26165.83129269  .00000342  00000+0  78603-4 0  9997
2 25994  97.9457 215.4709 0001396 198.1654 250.3347 14.61101387409260
CLUSTER II-FM7 (SAMBA)  
1 26410U 00041A   26168.13893489  .00013374  00000+0  00000+0 0  9992
2 26410 149.9162  50.9861 9054057 268.1289 359.6411  0.44866443 20305
CLUSTER II-FM8 (TANGO)  
1 26464U 00045B   26163.93659067  .00006610  00000+0  00000+0 0  9995
2 26464 150.1459  51.3061 9053813 268.2487   3.0095  0.44416667 20299
ODIN                    
1 26702U 01007A   26165.61721265  .00155164  00000+0  10291-2 0  9991
2 26702  97.3841 206.3960 0006744 145.8627 214.3072 15.75011421388994
TIMED                   
1 26998U 01055B   26165.66649898  .00001039  00000+0  97912-4 0  9995
2 26998  74.0674 240.0937 0000981 340.0609  20.0537 14.95290371330441
CORIOLIS                
1 27640U 03001A   26165.87183372  .00000078  00000+0  57447-4 0  9997
2 27640  98.7125 172.7919 0013249 215.8097 144.2192 14.19944215213896
SORCE                   
1 27651U 03004A   26165.74864573  .00002643  00000+0  19981-3 0  9997
2 27651  39.9911 275.5911 0016770  30.7349 329.4425 15.03702452271538
MOST                    
1 27843U 03031D   26165.74739877  .00000050  00000+0  43033-4 0  9994
2 27843  98.7045 173.5075 0008699 258.3906 101.6295 14.21321985190361
SCISAT 1                
1 27858U 03036A   26165.72703716  .00000425  00000+0  59010-4 0  9994
2 27858  73.9285 176.2309 0008602 245.8505 114.1772 14.81445427231086
SWIFT                   
1 28485U 04047A   26165.76985057  .00046339  00000+0  38801-3 0  9996
2 28485  20.5510 203.5475 0001645 246.2940 113.7333 15.68119780186485
HINODE (SOLAR-B)        
1 29479U 06041A   26165.80075531  .00000594  00000+0  11048-3 0  9995
2 29479  98.0549 181.9885 0016085 298.0113  61.9464 14.68620107 54523
SHIJIAN-6 02A (SJ-6 02A)
1 29505U 06046A   26165.84880064  .00005675  00000+0  29130-3 0  9995
2 29505  97.6364 206.8971 0004280 131.0357 229.1246 15.16919224 71919
SHIJIAN-6 02B (SJ-6 02B)
1 29506U 06046B   26165.88039198  .00001166  00000+0  94961-4 0  9990
2 29506  97.7160 194.9530 0015251  67.1981 293.0853 15.01371778 70390
FGRST (GLAST)           
1 33053U 08029A   26165.54396426  .00002833  00000+0  10033-3 0  9997
2 33053  25.5810 222.8369 0007606 296.5938  63.3821 15.23937385995439
SDO                     
1 36395U 10005A   26165.43714222 -.00000094  00000+0  00000+0 0  9999
2 36395  34.6460  86.3840 0001714  49.5303 182.1298  1.00269990 60033
CRYOSAT 2               
1 36508U 10013A   26165.87606141  .00000171  00000+0  41800-4 0  9995
2 36508  92.0353 276.7398 0002168  88.5807 271.5648 14.51898385857747
X-SAT                   
1 37389U 11015C   26165.83854390  .00000242  00000+0  12056-3 0  9992
2 37389  98.3501 142.9733 0014124 355.4596   4.6454 14.25206241787345
GCOM-W1 (SHIZUKU)       
1 38337U 12025A   26165.58202921  .00000399  00000+0  98558-4 0  9992
2 38337  98.2022 106.1771 0001815  76.9307  96.0438 14.57122441748650
NUSTAR                  
1 38358U 12031A   26165.91670139  .00005537  00000+0  28896-3 0  9995
2 38358   6.0269  51.1540 0006986  73.5559 248.6695 15.08782806  1300
NEOSSAT                 
1 39089U 13009D   26165.77048623  .00000125  00000+0  57986-4 0  9995
2 39089  98.4176 345.8606 0009833 251.8556 108.1560 14.35825638696392
BRITE-AUSTRIA           
1 39091U 13009F   26165.77031523  .00000147  00000+0  64593-4 0  9995
2 39091  98.3993 345.2659 0009062 244.6230 115.4018 14.36541228696701
IRIS                    
1 39197U 13033A   26165.53857985  .00000930  00000+0  11261-3 0  9994
2 39197  97.9331   4.8240 0023724 330.7890  29.1997 14.85880593699988
HISAKI (SPRINT-A)       
1 39253U 13049A   26165.84560712  .00000132  00000+0  93062-4 0  9991
2 39253  29.7187 231.9181 0136866 357.8721   2.1261 13.55544544631109
CASSIOPE                
1 39265U 13055A   26165.80011307  .00048636 -43950-6  53252-3 0  9994
2 39265  80.9158  69.6205 0293505  70.4578 292.8096 15.24985497667303
STSAT-3                 
1 39422U 13066G   26165.84884929  .00003519  00000+0  26749-3 0  9996
2 39422  97.6216 135.7741 0011141  51.3086 308.9134 15.02746590683859
SWARM B                 
1 39451U 13067A   26165.84249089  .00003196  00000+0  11392-3 0  9990
2 39451  87.7434 343.0292 0003343  86.8596 273.3036 15.28538790682889
